[{"OBJECT_NAME":"STARLINK-34132","OBJECT_ID":"2025-107Y","EPOCH":"2026-03-09T09:32:06.350208","MEAN_MOTION":15.2760526,"ECCENTRICITY":0.00032789,"INCLINATION":42.9988,"RA_OF_ASC_NODE":203.3747,"ARG_OF_PERICENTER":293.6744,"MEAN_ANOMALY":66.3764,"EPHEMERIS_TYPE":0,"CLASSIFICATION_TYPE":"U","NORAD_CAT_ID":64086,"ELEMENT_SET_NO":999,"REV_AT_EPOCH":4604,"BSTAR":0.0013698411,"MEAN_MOTION_DOT":0.00037658,"MEAN_MOTION_DDOT":0},{"OBJECT_NAME":"TRANSPORTER-1 OBJECT M","OBJECT_ID":"2021-006M","EPOCH":"2026-03-09T22:05:37.843296","MEAN_MOTION":15.3227845,"ECCENTRICITY":0.00102759,"INCLINATION":97.2377,"RA_OF_ASC_NODE":116.7915,"ARG_OF_PERICENTER":187.5492,"MEAN_ANOMALY":172.5597,"EPHEMERIS_TYPE":0,"CLASSIFICATION_TYPE":"U","NORAD_CAT_ID":47424,"ELEMENT_SET_NO":999,"REV_AT_EPOCH":28439,"BSTAR":0.00023985652,"MEAN_MOTION_DOT":7.411e-5,"MEAN_MOTION_DDOT":0}]
